COMMENT,ORIGINATOR,NORAD_CAT_ID,OBJECT_NAME,OBJECT_TYPE,CLASSIFICATION_TYPE,INTLDES,EPOCH,EPOCH_MICROSECONDS,MEAN_MOTION,ECCENTRICITY,INCLINATION,RA_OF_ASC_NODE,ARG_OF_PERICENTER,MEAN_ANOMALY,EPHEMERIS_TYPE,ELEMENT_SET_NO,REV_AT_EPOCH,BSTAR,MEAN_MOTION_DOT,MEAN_MOTION_DDOT,FILE,TLE_LINE0,TLE_LINE1,TLE_LINE2,OBJECT_ID,OBJECT_NUMBER,SEMIMAJOR_AXIS,PERIOD,APOGEE,PERIGEE,DECAYED
"GENERATED VIA SPACETRACK.ORG API","18 SPCS","55091","SPACEBEE-164","PAYLOAD","U","23001CL","2023-09-16 02:39:18","782784","15.23025515","0.0014378","97.4671","318.5016","51.3138","308.9382","0","999","3892","0.00097936","0.00023091","0","4008138","0 SPACEBEE-164","1 55091U 23001CL  23259.11063406  .00023091  00000-0  97936-3 0  9990","2 55091  97.4671 318.5016 0014378  51.3138 308.9382 15.23025515 38928","2023-001CL","55091","6874.858","94.549","506.608","486.838","0"
"GENERATED VIA SPACETRACK.ORG API","18 SPCS","55091","SPACEBEE-164","PAYLOAD","U","23001CL","2023-09-16 16:50:47","356800","15.23045702","0.0014323","97.467","319.0894","49.5599","310.6884","0","999","3901","0.00076351","0.00017984","0","4008407","0 SPACEBEE-164","1 55091U 23001CL  23259.70193700  .00017984  00000-0  76351-3 0  9998","2 55091  97.4670 319.0894 0014323  49.5599 310.6884 15.23045702 39015","2023-001CL","55091","6874.797","94.547","506.509","486.815","0"
"GENERATED VIA SPACETRACK.ORG API","18 SPCS","55091","SPACEBEE-164","PAYLOAD","U","23001CL","2023-09-17 03:53:02","349600","15.23070504","0.0014312","97.4667","319.5469","48.0241","312.2213","0","999","3908","0.0011637","0.00027503","0","4008903","0 SPACEBEE-164","1 55091U 23001CL  23260.16183275  .00027503  00000-0  11637-2 0  9999","2 55091  97.4667 319.5469 0014312  48.0241 312.2213 15.23070504 39089","2023-001CL","55091","6874.722","94.546","506.427","486.748","0"
"GENERATED VIA SPACETRACK.ORG API","18 SPCS","55091","SPACEBEE-164","PAYLOAD","U","23001CL","2023-09-17 03:53:02","349600","15.23070504","0.0014312","97.4667","319.5469","48.0241","312.2213","0","999","3908","0.0011637","0.00027503","0","4008915","0 SPACEBEE-164","1 55091U 23001CL  23260.16183275  .00027503  00000-0  11637-2 0  9999","2 55091  97.4667 319.5469 0014312  48.0241 312.2213 15.23070504 39089","2023-001CL","55091","6874.722","94.546","506.427","486.748","0"
"GENERATED VIA SPACETRACK.ORG API","18 SPCS","55091","SPACEBEE-164","PAYLOAD","U","23001CL","2023-09-18 09:50:31","586784","15.23127345","0.0014137","97.4662","320.7879","43.5855","316.6496","0","999","3927","0.0011091","0.00026247","0","4009838","0 SPACEBEE-164","1 55091U 23001CL  23261.41008781  .00026247  00000-0  11091-2 0  9994","2 55091  97.4662 320.7879 0014137  43.5855 316.6496 15.23127345 39277","2023-001CL","55091","6874.551","94.542","506.135","486.698","0"
"GENERATED VIA SPACETRACK.ORG API","18 SPCS","55091","SPACEBEE-164","PAYLOAD","U","23001CL","2023-09-18 09:50:31","586784","15.23127345","0.0014137","97.4662","320.7879","43.5855","316.6496","0","999","3927","0.0011091","0.00026247","0","4009863","0 SPACEBEE-164","1 55091U 23001CL  23261.41008781  .00026247  00000-0  11091-2 0  9994","2 55091  97.4662 320.7879 0014137  43.5855 316.6496 15.23127345 39277","2023-001CL","55091","6874.551","94.542","506.135","486.698","0"
"GENERATED VIA SPACETRACK.ORG API","18 SPCS","55091","SPACEBEE-164","PAYLOAD","U","23001CL","2023-09-18 16:08:56","162400","15.23140744","0.001408","97.4662","321.0492","42.7289","317.504","0","999","3931","0.0011123","0.00026333","0","4010122","0 SPACEBEE-164","1 55091U 23001CL  23261.67287225  .00026333  00000-0  11123-2 0  9996","2 55091  97.4662 321.0492 0014080  42.7289 317.5040 15.23140744 39319","2023-001CL","55091","6874.511","94.541","506.055","486.697","0"
"GENERATED VIA SPACETRACK.ORG API","18 SPCS","55091","SPACEBEE-164","PAYLOAD","U","23001CL","2023-09-19 09:29:32","222976","15.23189448","0.0014077","97.4662","321.7678","39.8107","320.416","0","999","3942","0.001195","0.00028345","0","4010783","0 SPACEBEE-164","1 55091U 23001CL  23262.39551184  .00028345  00000-0  11950-2 0  9997","2 55091  97.4662 321.7678 0014077  39.8107 320.4160 15.23189448 39426","2023-001CL","55091","6874.365","94.538","505.907","486.553","0"
"GENERATED VIA SPACETRACK.ORG API","18 SPCS","55091","SPACEBEE-164","PAYLOAD","U","23001CL","2023-09-20 02:50:06","183168","15.23243355","0.001402","97.466","322.4867","37.4333","322.7877","0","999","3953","0.0012637","0.00030033","0","4011433","0 SPACEBEE-164","1 55091U 23001CL  23263.11812712  .00030033  00000-0  12637-2 0  9995","2 55091  97.4660 322.4867 0014020  37.4333 322.7877 15.23243355 39535","2023-001CL","55091","6874.202","94.535","505.705","486.430","0"
"GENERATED VIA SPACETRACK.ORG API","18 SPCS","55091","SPACEBEE-164","PAYLOAD","U","23001CL","2023-09-20 02:50:06","183168","15.23243355","0.001402","97.466","322.4867","37.4333","322.7877","0","999","3953","0.0012637","0.00030033","0","4011740","0 SPACEBEE-164","1 55091U 23001CL  23263.11812712  .00030033  00000-0  12637-2 0  9995","2 55091  97.4660 322.4867 0014020  37.4333 322.7877 15.23243355 39535","2023-001CL","55091","6874.202","94.535","505.705","486.430","0"
"GENERATED VIA SPACETRACK.ORG API","18 SPCS","55091","SPACEBEE-164","PAYLOAD","U","23001CL","2023-09-20 15:26:51","712512","15.23270091","0.0013936","97.466","323.009","35.8261","324.3908","0","999","3961","0.0011027","0.00026204","0","4012054","0 SPACEBEE-164","1 55091U 23001CL  23263.64365408  .00026204  00000-0  11027-2 0  9995","2 55091  97.4660 323.0090 0013936  35.8261 324.3908 15.23270091 39616","2023-001CL","55091","6874.122","94.533","505.567","486.407","0"
"GENERATED VIA SPACETRACK.ORG API","18 SPCS","55091","SPACEBEE-164","PAYLOAD","U","23001CL","2023-09-21 02:29:00","884544","15.2329043","0.0013952","97.466","323.4666","34.1938","326.0194","0","999","3968","0.00099272","0.00023589","0","4012316","0 SPACEBEE-164","1 55091U 23001CL  23264.10348246  .00023589  00000-0  99272-3 0  9990","2 55091  97.4660 323.4666 0013952  34.1938 326.0194 15.23290430 39682","2023-001CL","55091","6874.061","94.532","505.516","486.335","0"
"GENERATED VIA SPACETRACK.ORG API","18 SPCS","55091","SPACEBEE-164","PAYLOAD","U","23001CL","2023-09-21 04:03:36","414144","15.23296757","0.0013962","97.4659","323.5318","34.0096","326.2033","0","999","3969","0.0011197","0.00026632","0","4012680","0 SPACEBEE-164","1 55091U 23001CL  23264.16917146  .00026632  00000-0  11197-2 0  9998","2 55091  97.4659 323.5318 0013962  34.0096 326.2033 15.23296757 39693","2023-001CL","55091","6874.042","94.532","505.504","486.309","0"
"GENERATED VIA SPACETRACK.ORG API","18 SPCS","55091","SPACEBEE-164","PAYLOAD","U","23001CL","2023-09-21 15:05:44","960640","15.23314113","0.0013858","97.4661","323.9887","32.5645","327.6444","0","999","3976","0.00091295","0.00021697","0","4012956","0 SPACEBEE-164","1 55091U 23001CL  23264.62899260  .00021697  00000-0  91295-3 0  9999","2 55091  97.4661 323.9887 0013858  32.5645 327.6444 15.23314113 39764","2023-001CL","55091","6873.989","94.531","505.380","486.329","0"
"GENERATED VIA SPACETRACK.ORG API","18 SPCS","55091","SPACEBEE-164","PAYLOAD","U","23001CL","2023-09-22 10:00:49","688064","15.23350803","0.0013978","97.4658","324.7725","28.6686","331.5316","0","999","3988","0.00093668","0.0002229","0","4013574","0 SPACEBEE-164","1 55091U 23001CL  23265.41724176  .00022290  00000-0  93668-3 0  9996","2 55091  97.4658 324.7725 0013978  28.6686 331.5316 15.23350803 39885","2023-001CL","55091","6873.879","94.528","505.352","486.136","0"
"GENERATED VIA SPACETRACK.ORG API","18 SPCS","55091","SPACEBEE-164","PAYLOAD","U","23001CL","2023-09-22 10:00:49","688064","15.23350803","0.0013978","97.4658","324.7725","28.6686","331.5316","0","999","3988","0.00093668","0.0002229","0","4013584","0 SPACEBEE-164","1 55091U 23001CL  23265.41724176  .00022290  00000-0  93668-3 0  9996","2 55091  97.4658 324.7725 0013978  28.6686 331.5316 15.23350803 39885","2023-001CL","55091","6873.879","94.528","505.352","486.136","0"
"GENERATED VIA SPACETRACK.ORG API","18 SPCS","55091","SPACEBEE-164","PAYLOAD","U","23001CL","2023-09-22 17:53:46","142016","15.23369692","0.0013856","97.4658","325.0991","27.944","332.2538","0","999","3993","0.0010748","0.00025612","0","4013859","0 SPACEBEE-164","1 55091U 23001CL  23265.74567294  .00025612  00000-0  10748-2 0  9996","2 55091  97.4658 325.0991 0013856  27.9440 332.2538 15.23369692 39935","2023-001CL","55091","6873.822","94.527","505.212","486.163","0"
"GENERATED VIA SPACETRACK.ORG API","18 SPCS","55091","SPACEBEE-164","PAYLOAD","U","23001CL","2023-09-23 09:39:38","73600","15.23402622","0.001365","97.4661","325.7526","25.971","334.2209","0","999","4003","0.0010706","0.00025534","0","4014543","0 SPACEBEE-164","1 55091U 23001CL  23266.40252400  .00025534  00000-0  10706-2 0  9997","2 55091  97.4661 325.7526 0013650  25.9710 334.2209 15.23402622 40031","2023-001CL","55091","6873.723","94.525","504.971","486.206","0"
"GENERATED VIA SPACETRACK.ORG API","18 SPCS","55091","SPACEBEE-164","PAYLOAD","U","23001CL","2023-09-23 17:32:33","655776","15.23417557","0.001361","97.4662","326.0793","24.8475","335.3414","0","999","4008","0.0010369","0.00024736","0","4014781","0 SPACEBEE-164","1 55091U 23001CL  23266.73094509  .00024736  00000-0  10369-2 0  9995","2 55091  97.4662 326.0793 0013610  24.8475 335.3414 15.23417557 40082","2023-001CL","55091","6873.678","94.524","504.898","486.188","0"
"GENERATED VIA SPACETRACK.ORG API","18 SPCS","55091","SPACEBEE-164","PAYLOAD","U","23001CL","2023-09-24 03:00:03","786912","15.2344194","0.0013573","97.4662","326.4714","23.4096","336.7756","0","999","4014","0.00117","0.00027952","0","4015358","0 SPACEBEE-164","1 55091U 23001CL  23267.12504383  .00027952  00000-0  11700-2 0  9998","2 55091  97.4662 326.4714 0013573  23.4096 336.7756 15.23441940 40145","2023-001CL","55091","6873.605","94.523","504.800","486.140","0"
